brand,place_name,address_name,lng,lat
KFC,KFC 역삼역점,서울 강남구 역삼동 642-10,127.036148932251,37.50200440179
KFC,KFC 압구정로데오점,서울 강남구 신사동 660-5,127.0374728557056,37.528368260064404
KFC,KFC 강남구청역점,서울 강남구 삼성동 1,127.041920557974,37.5170708956367
KFC,KFC 대치동점,서울 강남구 대치동 987-20,127.062959057158,37.4997694729134
KFC,KFC 코엑스몰점,서울 강남구 삼성동 159,127.05866036342081,37.51111443977995
KFC,KFC 신사역점,서울 강남구 논현동 5-1,127.02341499270277,37.51742199919277
KFC,KFC 학동역2점,서울 강남구 논현동 89-22,127.03312605104674,37.51499417314591
KFC,KFC 일원동점,서울 강남구 일원동 615-1,127.08041424729997,37.491205625073434
KFC,KFC 양재동점,서울 서초구 양재동 12-3,127.035190713288,37.4844422603922
KFC,KFC 서초우성점,서울 서초구 서초동 1330-8,127.028310349601,37.4926685089857
KFC,KFC 잠실새내점,서울 송파구 잠실동 181,127.081300180353,37.5115263008329
KFC,KFC 잠실야구장점,서울 송파구 잠실동 10,127.07089652778164,37.51264574340379
KFC,KFC 강남역점,서울 서초구 서초동 1317-6,127.02609618439084,37.498918401602786
KFC,KFC 잠실롯데월드점,서울 송파구 잠실동 40-1,127.09637161374704,37.51059143669808
KFC,KFC 서초동점,서울 서초구 서초동 1602-2,127.01509444162328,37.484980834943805
KFC,KFC 석촌역점,서울 송파구 석촌동 286-5,127.10689895175389,37.50466998677493
KFC,KFC 서울교대S점,서울 서초구 서초동 1576-6,127.01397613721231,37.49066362985785
KFC,KFC 강남고속터미널점,서울 서초구 잠원동 69-4,127.005062333495,37.5065472878052
KFC,KFC 건대입구역점,서울 광진구 화양동 7-2,127.069747255368,37.5404981979832
KFC,KFC 이노베이션R&D센터,서울 송파구 신천동 7-23,127.103537878014,37.5154291687344
KFC,KFC 문정역점,서울 송파구 문정동 651,127.1220378076,37.485053923119
KFC,KFC 세종대점,서울 광진구 화양동 225,127.073590794064,37.5472101115438
KFC,KFC 광장동점,서울 광진구 구의동 201-8,127.095079618411,37.5415292821256
KFC,KFC 개롱역점,서울 송파구 가락동 167,127.134988597423,37.4976728525029
KFC,KFC 한남순천향점,서울 용산구 한남동 638-5,127.0049498662239,37.533244013904394
KFC,KFC 이수역점,서울 서초구 방배동 3160,126.982679989523,37.4867600209934
KFC,케이에프씨코리아 본사,서울 송파구 신천동 7-23,127.10355035029148,37.515450781888774
KFC,KFC 천호역점,서울 강동구 성내동 43-11,127.125776008146,37.5364045230776
KFC,KFC 둔촌동점,서울 강동구 둔촌동 489-8,127.13743052151962,37.529965600554256
KFC,KFC 명일DI점,서울 강동구 명일동 306-2,127.143843015792,37.5529442520838
KFC,KFC 미아사거리역점,서울 강북구 미아동 55-14,127.030775205163,37.6131385331868
KFC,KFC 수유역점,서울 강북구 수유동 740,127.02366760781342,37.63661268602449
KFC,KFC 우이동점,서울 도봉구 쌍문동 423-17,127.012909344935,37.6517797172686
KFC,KFC 창동역점,서울 도봉구 창동 1-28,127.04997575882913,37.65462865564429
KFC,KFC 노원역점,서울 노원구 상계동 731-3,127.06045282620403,37.65358942401421
KFC,KFC 석계역점,서울 노원구 월계동 55-14,127.06393885339827,37.61552365612336
KFC,KFC 중계은행사거리점,서울 노원구 중계동 360-14,127.07629396392961,37.64789323874254
KFC,KFC 돈암동점,서울 성북구 동선동1가 3-1,127.017695400627,37.5920904792409
KFC,KFC 한국외대점,서울 동대문구 이문동 288-10,127.06064916958275,37.59679021171144
KFC,KFC 먹골역점,서울 중랑구 묵동 176-15,127.078012350531,37.6115742677643
KFC,KFC 고대안암점,서울 성북구 안암동5가 101-19,127.029165626021,37.586660623945
KFC,KFC 대학로점,서울 종로구 동숭동 1-27,127.002291438221,37.5818745248602
KFC,KFC 전농동점,서울 동대문구 전농동 25-4,127.05789796488708,37.5754164393325
KFC,KFC 망우동점,서울 중랑구 망우동 470-10,127.097485412954,37.5989855763492
KFC,KFC 면목역점,서울 중랑구 면목동 102-19,127.087782264022,37.588655215517
KFC,KFC 발산역점,서울 강서구 마곡동 723-2,126.83777336883877,37.55885619128075
KFC,KFC 마곡나루점,서울 강서구 마곡동 760,126.82688003473864,37.567134384156844
KFC,KFC 염창역점,서울 강서구 염창동 282-24,126.87424077744241,37.54729401681483
KFC,KFC 까치산역점,서울 강서구 화곡동 343-64,126.8467790348279,37.531182342740635
KFC,KFC 신정네거리역점,서울 양천구 신정동 1190-3,126.852250186434,37.5209251067863
KFC,KFC 목동점,서울 양천구 목동 961,126.87125051457069,37.524580187293644
KFC,KFC 당산역점,서울 영등포구 당산동6가 331-6,126.90162106134557,37.534487066798434
KFC,KFC 상암DMC점,서울 마포구 상암동 1605,126.89135054948017,37.57936303188061
KFC,KFC 홍익대점,서울 마포구 동교동 165-8,126.923150191567,37.5560089841638
KFC,KFC 여의도점,서울 영등포구 여의도동 14-8,126.920344514937,37.5295033275011
KFC,KFC 영등포역점,서울 영등포구 영등포동 618-496,126.907727028746,37.5154312981173
KFC,KFC 상수역점,서울 마포구 상수동 93-45,126.92321890107243,37.54860552899241
KFC,KFC 명지대점,서울 서대문구 남가좌동 344-1,126.922334836737,37.5782954788071
KFC,KFC 행신역점,경기 고양시 덕양구 행신동 762-2,126.83434777920347,37.613379469382416
KFC,KFC 신촌역점,서울 서대문구 창천동 72-2,126.935200991338,37.5559945887965
KFC,케이에프씨전자,서울 구로구 구로동 1258,126.874947938166,37.5005859280712
KFC,KFC 서울대입구역점,서울 관악구 봉천동 869-4,126.9511722223172,37.4812054935211
KFC,KFC 신림역점,서울 관악구 신림동 86-3,126.93020954061873,37.482411332726066
KFC,KFC 봉천역점,서울 관악구 봉천동 926-31,126.94310092587881,37.482501136978385
KFC,KFC 사당역점,서울 서초구 방배동 444-3,126.98210102175054,37.47749486072681
KFC,KFC 보라매점,서울 동작구 신대방동 395-73,126.92506256992297,37.49180659373479
KFC,KFC 상도역점,서울 동작구 상도1동 701-2,126.947900531266,37.5035616886522
KFC,KFC 노량진역점,서울 동작구 노량진동 67-2,126.94290732402469,37.514040768178596
KFC,KFC 독산동점,서울 금천구 독산동 1043,126.90267365864547,37.4644887934095
KFC,KFC 구로디지털2점,서울 구로구 구로동 188-25,126.89643001333,37.4854508798187
KFC,KFC 용산아이파크몰점,서울 용산구 한강로3가 40-999,126.9646673672988,37.52888249071998
KFC,KFC 가산디지털점,서울 금천구 가산동 459-11,126.88145256841506,37.48147777132914
KFC,KFC 하안동점,경기 광명시 하안동 51,126.880208904617,37.4616344756764
KFC,KFC 철산역점,경기 광명시 철산동 245-5,126.868682726462,37.4766871206159
KFC,KFC 숙대입구점,서울 용산구 갈월동 69-3,126.971724267043,37.5447915542961
KFC,KFC 왕십리역사점,서울 성동구 행당동 168-151,127.03825082971777,37.560850835655465
KFC,KFC 신금호역점,서울 성동구 금호동2가 448,127.01987634432092,37.554345653258736
KFC,KFC 별내북부점,경기 남양주시 별내동 827-4,127.116470836206,37.6670486189633
KFC,KFC 별내역점,경기 남양주시 별내동 1006-1,127.125451560188,37.6458483211407
KFC,KFC 의정부엔터점,경기 의정부시 의정부동 494,127.0442151080342,37.73795501930704
KFC,KFC153작은도서관,경기 의정부시 의정부동 486-7,127.03944936101,37.7385450437171
KFC,KFC 충무로역점,서울 중구 충무로4가 125-3,126.99562208074337,37.56183543313603
KFC,KFC 청계천점,서울 종로구 서린동 88,126.98147010143195,37.56925646598366
KFC,KFC 광화문점,서울 종로구 세종로 161-1,126.97594775188335,37.57153949323709
KFC,KFC 시청역점,서울 중구 태평로2가 330-2,126.976125768917,37.5635170629693
KFC,KFC 응암점,서울 은평구 응암동 88-10,126.92190632299268,37.600531684386624
KFC,KFC 연신내역점,서울 은평구 대조동 185-24,126.920530649324,37.6184280146666
KFC,KFC 위례중앙점,경기 성남시 수정구 창곡동 505,127.14105594417825,37.47316556400687
KFC,KFC 구리돌다리점,경기 구리시 인창동 280-8,127.139853813148,37.6007737886929
맥도날드,맥도날드 강남2호점,서울 강남구 역삼동 822-2,127.02873329209403,37.49864658673187
맥도날드,맥도날드 강남삼성DT점,서울 강남구 삼성동 113-7,127.04733263226441,37.5109122911237
맥도날드,맥도날드 강남구청점,서울 강남구 논현동 242-29,127.041413345131,37.5162457553437
맥도날드,맥도날드 신사역점,서울 강남구 신사동 514-15,127.02192751652281,37.51741507668443
맥도날드,맥도날드 선릉점,서울 강남구 역삼동 707-27,127.04690276073,37.5035719753543
맥도날드,맥도날드 삼성역점,서울 강남구 삼성동 158-15,127.0588583663039,37.508318524270145
맥도날드,맥도날드 압구정CGV점,서울 강남구 신사동 603-2,127.02884728131978,37.524500878091644
맥도날드,맥도날드 한티역점,서울 강남구 대치동 938-22,127.055203851041,37.4973154064777
맥도날드,맥도날드 코엑스점,서울 강남구 삼성동 159-9,127.06221843210947,37.50944125601357
맥도날드,맥도날드 송파잠실DT점,서울 송파구 잠실동 305-15,127.0769766588255,37.50435990313616
맥도날드,맥도날드 양재SK DT점,서울 서초구 양재동 81,127.039547238523,37.4781698603516
맥도날드,맥도날드 양재점,서울 서초구 양재동 24,127.03582400254028,37.48232289779557
맥도날드,맥도날드 서초뱅뱅점,서울 서초구 서초동 1338-20,127.030851298504,37.4900981996362
맥도날드,맥도날드 신천점,서울 송파구 잠실동 181-9,127.082839452637,37.5114234178882
맥도날드,맥도날드 서울교대점,서울 서초구 서초동 1674-5,127.01620222091923,37.49416826383995
맥도날드,맥도날드 잠실역점,서울 송파구 신천동 7-25,127.099371257798,37.5149209776624
맥도날드,맥도날드 석촌역점,서울 송파구 송파동 84,127.109126654708,37.5060176551338
맥도날드,맥도날드 서초GS점,서울 서초구 서초동 1536-15,127.00973866478523,37.48656717239016
맥도날드,맥도날드 구의역점,서울 광진구 자양동 216-11,127.08445684155768,37.536477341920204
맥도날드,맥도날드 방배점,서울 서초구 방배동 909-9,126.99710900507553,37.48166605186262
맥도날드,맥도날드 어린이대공원점,서울 광진구 화양동 212,127.073129185972,37.5473004981961
맥도날드,맥도날드 가락DT점,서울 송파구 가락동 193-7,127.130718150999,37.494895348221
맥도날드,맥도날드 강남삼성DT점 주차장,서울 강남구 삼성동 113-7,127.047270493262,37.5110222385403
맥도날드,신한 방배금융센터 ATM 방배역맥도널드,서울 서초구 방배동 909-9,126.99710448329158,37.481648031565925
맥도날드,맥도날드 서울둔촌DT점,서울 강동구 둔촌동 517-2,127.137276627444,37.5293314748911
맥도날드,맥도날드 굽은다리역DT점,서울 강동구 천호동 31-10,127.143098792431,37.5472508507001
맥도날드,맥도날드 상일동점,서울 강동구 상일동 502,127.175160657454,37.5496691686604
맥도날드,맥도날드 굽은다리역DT점 주차장,서울 강동구 천호동 31-10,127.143026302501,37.5472157995974
맥도날드,맥도날드 서울둔촌DT점 주차장,서울 강동구 둔촌동 517-2,127.137480186828,37.5292870890569
맥도날드,맥도날드 수유점,서울 강북구 번동 418-17,127.02595210704666,37.63789160449129
맥도날드,맥도날드 미아DT점,서울 강북구 미아동 682-12,127.021656909035,37.6181644702265
맥도날드,맥도날드 서울번동DT점,서울 강북구 번동 106,127.04527518257626,37.62117067513775
맥도날드,맥도날드 미아역점,서울 강북구 미아동 197-5,127.0261771357211,37.62696259653743
맥도날드,맥도날드 중계역점,서울 노원구 상계동 763-2,127.06216979074941,37.648313276817916
맥도날드,맥도날드 방학역DT점,서울 도봉구 도봉동 620-24,127.04337004516637,37.670084898982644
맥도날드,맥도날드 세이브존노원점,서울 노원구 하계동 284,127.0681876218237,37.636849433687495
맥도날드,맥도날드 상계DT점,서울 노원구 상계동 1022,127.056194811732,37.6724679835578
맥도날드,맥도날드 과학기술대점,서울 노원구 공릉동 435-2,127.076291347229,37.6298221908143
맥도날드,맥도날드 종암SKDT점,서울 성북구 종암동 10-15,127.035917942119,37.5957515749764
맥도날드,맥도날드 중계점,서울 노원구 중계동 359-14,127.07609867619487,37.650844084418154
맥도날드,맥도날드 서울태릉입구역DT점,서울 노원구 공릉동 596-10,127.075128466422,37.6202553581845
맥도날드,맥도날드 외대점,서울 동대문구 이문동 305-151,127.06185211449433,37.59588048726777
맥도날드,맥도날드 삼선점,서울 성북구 동소문동1가 32-3,127.00755208575038,37.58935074566599
맥도날드,맥도날드 안암점,서울 성북구 안암동5가 102-33,127.02926437691879,37.58440451300253
맥도날드,맥도날드 대학로점,서울 종로구 동숭동 1-34,127.002101267647,37.582865621277
맥도날드,맥도날드 중랑점,서울 중랑구 상봉동 130-166,127.075457137376,37.5935308967985
맥도날드,맥도날드 성균관대점,서울 종로구 명륜2가 197-1,126.998876900604,37.5834026267082
맥도날드,맥도날드 신내점,서울 중랑구 신내동 666,127.09503889557504,37.60656489834167
맥도날드,맥도날드 전농점,서울 동대문구 전농동 295-96,127.05775628061532,37.578114986560344
맥도날드,맥도날드 동묘점,서울 종로구 창신동 290,127.015132599751,37.5731735765721
맥도날드,맥도날드 수유점 주차장,서울 강북구 번동 418-22,127.02623761396579,37.637878026569744
맥도날드,맥도날드 서울번동DT점 주차장,서울 강북구 번동 106,127.045259313449,37.6211526614751
맥도날드,맥도날드 미아DT점 주차장,서울 강북구 미아동 682-12,127.021711234874,37.6180166982048
맥도날드,맥도날드 방학역DT점 주차장,서울 도봉구 도봉동 620-25,127.043296448011,37.6702200730293
맥도날드,맥도날드 상계DT점 주차장,서울 노원구 상계동 1022,127.05623884787,37.6722418166794
맥도날드,맥도날드삼선점 개방화장실,서울 성북구 동소문동1가 29-3,127.00750454133863,37.58944985786768
맥도날드,맥도날드 등촌DT점,서울 강서구 등촌동 630,126.859727620441,37.5583040736413
맥도날드,맥도날드 염창DT점,서울 강서구 염창동 280-11,126.871566161306,37.5476569432952
맥도날드,맥도날드 우장산DT점,서울 강서구 화곡동 1026,126.83747836513412,37.545125488746436
맥도날드,맥도날드 송정역점,서울 강서구 공항동 45-38,126.809676409986,37.5616938247956
맥도날드,맥도날드 신월DT점,서울 양천구 신월동 199-3,126.83095181926853,37.53142203806361
맥도날드,맥도날드 목동점,서울 양천구 신정동 899-6,126.86373241338259,37.528149629058746
맥도날드,맥도날드 신월남부DT점,서울 양천구 신월동 525-1,126.83871442940706,37.51972888782668
맥도날드,맥도날드 양평SK DT점,서울 영등포구 양평동3가 80-2,126.893457396957,37.5308588619941
맥도날드,맥도날드 서울상암DMC점,서울 마포구 상암동 1602,126.88995304722175,37.580469959324276
맥도날드,맥도날드 망원점,서울 마포구 망원동 377-19,126.90977742489936,37.556096830594846
맥도날드,맥도날드 합정메세나폴리스점,서울 마포구 서교동 490,126.913473125232,37.5507188385582
맥도날드,맥도날드 부천원종DT점,경기 부천시 오정구 원종동 376-6,126.804408201853,37.5177741429459
맥도날드,맥도날드 고척DT점,서울 구로구 고척동 73-20,126.86355910584498,37.497200859037186
맥도날드,맥도날드 영등포점,서울 영등포구 영등포동3가 10-4,126.90767534775247,37.516982785480984
맥도날드,맥도날드 신도림테크노점,서울 구로구 구로동 3-25,126.8907012687388,37.506907688694334
맥도날드,맥도날드 여의도점,서울 영등포구 여의도동 23,126.925934554003,37.52598765293301
맥도날드,맥도날드 행신점,경기 고양시 덕양구 행신동 714-1,126.83384631720284,37.61528795725437
맥도날드,맥도날드 명지대점,서울 서대문구 남가좌동 324-3,126.924742252567,37.5799332429118
맥도날드,맥도날드 연세대점,서울 서대문구 창천동 33-12,126.9367843937591,37.55856058625979
맥도날드,맥도날드 광명역점,경기 광명시 광명동 158-792,126.853983391728,37.479012492637
맥도날드,맥도날드 우장산DT점 주차장,서울 강서구 화곡동 1026,126.837403712629,37.5451109700039
맥도날드,맥도날드 등촌DT점 주차장,서울 강서구 등촌동 630,126.859670881388,37.5583841949073
맥도날드,한국맥도널드 송정역점 개방화장실,서울 강서구 공항동 45-38,126.809698881421,37.5617587326863
맥도날드,맥도날드 신월DT점 주차장,서울 양천구 신월동 199-3,126.830941630878,37.5314247264802
맥도날드,맥도날드 신월남부DT점 주차장,서울 양천구 신월동 525-1,126.838612674756,37.5197044217737
맥도날드,맥도날드 고척DT점 주차장,서울 구로구 고척동 73-20,126.863635769416,37.4973297913953
맥도날드,맥도날드 부천원종DT점 주차장,경기 부천시 오정구 원종동 376-20,126.804167018018,37.5178683485188
맥도날드,맥도날드 명지대점 개방화장실,서울 서대문구 남가좌동 324-3,126.924760366217,37.5799332544584
맥도날드,맥도날드 연대점 개방화장실,서울 서대문구 창천동 33-12,126.93670741442966,37.558582168947645
맥도날드,맥도날드 신림점,서울 관악구 신림동 1641-22,126.93015567293818,37.48197881673212
맥도날드,맥도날드 숭실대점(휴업중),서울 동작구 상도동 505-5,126.956906603023,37.4951364047689
맥도날드,맥도날드 이수점,서울 동작구 사당동 147-29,126.98064641265356,37.48464233587453
맥도날드,맥도날드 중앙대점,서울 동작구 흑석동 221,126.958963206106,37.5061330138949
맥도날드,맥도날드 보라매점,서울 영등포구 신길동 505,126.92009852892339,37.50025117773754
맥도날드,맥도날드 노량진점,서울 동작구 노량진동 100-1,126.943558104375,37.5135184986792
맥도날드,맥도날드 구로디지털점,서울 구로구 구로동 197-21,126.894978549527,37.4852189404974
맥도날드,맥도날드 서울시흥DT점,서울 금천구 시흥동 903-4,126.902734772323,37.4504681915593
맥도날드,맥도날드 마리오아울렛점,서울 금천구 가산동 60-22,126.88688658553701,37.47829532960229
맥도날드,맥도날드 가산디지털점,서울 금천구 가산동 50-3,126.883569199241,37.4814023893401
맥도날드,맥도날드 가산비지니스센터점,서울 금천구 가산동 371-6,126.8813098877346,37.48018918586002
맥도날드,맥도날드 공덕점,서울 마포구 도화동 559,126.9470846462646,37.541068262776854
맥도날드,맥도날드 이태원점,서울 용산구 이태원동 56-21,126.989699646402,37.5340167272809
맥도날드,맥도날드 과천이마트점,경기 과천시 별양동 1-19,126.99146446522997,37.42626428170148
맥도날드,맥도날드 광명소하DT점,경기 광명시 소하동 1340,126.881736448508,37.4476883399368
맥도날드,맥도날드 세이브존광명점,경기 광명시 철산동 367,126.877649039257,37.4704653627268
맥도날드,맥도날드 철산역점,경기 광명시 철산동 404,126.868555915074,37.4755048555974
맥도날드,맥도날드 서울시흥DT점 주차장,서울 금천구 시흥동 903-9,126.902922358343,37.4504827620033
맥도날드,맥도날드 광명소하DT점 주차장,경기 광명시 소하동 1340,126.881759090331,37.4476631342092
맥도날드,맥도날드 장안사거리점,서울 동대문구 장안동 308-4,127.072637595858,37.5724638396628
맥도날드,맥도날드 한양대점,서울 성동구 행당동 31-7,127.041866107633,37.5572699478379
맥도날드,맥도날드 광명DT점,경기 광명시 광명동 754-4,126.847809029472,37.4685529931432
맥도날드,맥도날드 부천역곡역DT점,경기 부천시 소사구 괴안동 112-23,126.80953641175573,37.48368129744206
맥도날드,맥도날드 광명DT점 주차장,경기 광명시 광명동 754-4,126.84789603152,37.4685729273861
맥도날드,맥도날드 부천역곡역DT점 주차장,경기 부천시 소사구 괴안동 112-23,126.809530731089,37.4836921003722
맥도날드,맥도날드 의정부GS DT점,경기 의정부시 호원동 435,127.047165992205,37.7201227586572
맥도날드,맥도날드 의정부만가대DT점,경기 의정부시 용현동 60-1,127.08653189522852,37.7308859656636
맥도날드,맥도날드 의정부역점,경기 의정부시 의정부동 194-10,127.048508258549,37.7399687994896
맥도날드,맥도날드 의정부GSDT점 주차장,경기 의정부시 호원동 435,127.046940290484,37.7201399672108
맥도날드,맥도날드 만가대DT점 주차장,경기 의정부시 용현동 60-1,127.086401725361,37.7311320260891
맥도날드,맥도날드 종로3가점,서울 종로구 종로3가 10,126.9904779328265,37.57056758352427
맥도날드,맥도날드 서울시청점,서울 중구 을지로1가 32,126.979367619692,37.5668369438027
맥도날드,맥도날드 명동점,서울 중구 명동1가 48-2,126.984529660329,37.5641779925965
맥도날드,맥도날드 명동2호점,서울 중구 회현동3가 1-5,126.98467527366,37.5605920452162
맥도날드,맥도날드 서울역점,서울 중구 봉래동2가 122-11,126.9704644811706,37.554271552328366
맥도날드,한국맥도날드 본사,서울 종로구 공평동 70,126.98360914667553,37.570744325762846
맥도날드,맥도날드 종로3가 개방화장실,서울 종로구 종로3가 10,126.99048811613325,37.57060182216758
맥도날드,모트맥도날드코리아,서울 종로구 종로1가 1,126.977898350266,37.5708560191617
맥도날드,맥도날드 홍제역점,서울 서대문구 홍제동 253-11,126.944633659981,37.5886442379462
맥도날드,맥도날드 구산점,서울 은평구 구산동 1-14,126.9166859478842,37.61063001156582
맥도날드,맥도날드 연신내점,서울 은평구 갈현동 456-28,126.919285602014,37.617587448962
맥도날드,맥도날드 연신내점 개방화장실,서울 은평구 갈현동 456-28,126.919122418934,37.6176594162657
맥도날드,맥도날드 위례신도시점,서울 송파구 장지동 896,127.142698907091,37.4751386037791
맥도날드,맥도날드 성남신흥DT점,경기 성남시 수정구 신흥동 181,127.148688818186,37.4513733614279
맥도날드,맥도날드 고양삼송DT점,경기 고양시 덕양구 동산동 74-1,126.895717752927,37.6453625800086
맥도날드,맥도날드 고양삼송DT점 주차장,경기 고양시 덕양구 동산동 74-1,126.895748351516,37.6453590031176
맥도날드,맥도날드 구리인창DT점,경기 구리시 인창동 410-5,127.13769140134039,37.61026555070321
맥도날드,맥도날드 구리수택점,경기 구리시 수택동 526-4,127.1418653249553,37.60035422959322
맥도날드,맥도날드 구리인창DT점 주차장,경기 구리시 인창동 410-5,127.137725574206,37.6103718274794
맘스터치,맘스터치 강남역점,서울 강남구 역삼동 619-15,127.02687067863272,37.50163205822193
맘스터치,맘스터치 강남대성학원점,서울 강남구 역삼동 827-69,127.03200588001366,37.495606650404675
맘스터치,맘스터치 선릉역점,서울 강남구 역삼동 705-1,127.0472968393595,37.504377317090565
맘스터치,맘스터치 한티역점,서울 강남구 대치동 923-23,127.05328644299,37.4980515081111
맘스터치,맘스터치 강남압구정점,서울 강남구 신사동 579-6,127.02710566332202,37.525969924290585
맘스터치,맘스터치 매봉역점,서울 강남구 도곡동 411-17,127.0448270288268,37.48581033193753
맘스터치,맘스터치 대치사거리점,서울 강남구 대치동 961,127.059006847324,37.5029736877085
맘스터치,맘스터치 도산대로점,서울 강남구 논현동 99,127.037680691318,37.5209682620251
맘스터치,맘스터치 포이사거리점,서울 강남구 개포동 1229-6,127.045620014771,37.4771333128554
맘스터치,맘스터치 학동역점,서울 강남구 논현동 88-7,127.03273236147857,37.51485913233028
맘스터치,맘스터치 삼성중앙역점,서울 강남구 삼성동 50-2,127.0514509692564,37.51277114277153
맘스터치,맘스터치 강남세곡점,서울 강남구 자곡동 596,127.10495788149451,37.475339436093066
맘스터치,맘스터치 잠실새내역점,서울 송파구 잠실동 184-2,127.08363117565,37.5114012358889
맘스터치,맘스터치 잠실1호점,서울 송파구 잠실동 250-5,127.08777431236338,37.504669527304934
맘스터치,맘스터치 강남대로점,서울 서초구 서초동 1306-2,127.0258150742382,37.500309616871874
맘스터치,맘스터치 서초교대점,서울 서초구 서초동 1671-5,127.0156084237816,37.49357818417099
맘스터치,맘스터치 뚝섬한강공원점,서울 광진구 자양동 427-13,127.072065806104,37.5288360555462
맘스터치,맘스터치 송파역점,서울 송파구 송파동 97-37,127.111511148339,37.5009463732759
맘스터치,맘스터치 건대스타시티점,서울 광진구 자양동 227-342,127.07119467418133,37.53954047240983
맘스터치,맘스터치 서초중앙로점,서울 서초구 반포동 32-2,127.01199690034943,37.5022084458189
맘스터치,맘스터치 건대로데오점,서울 광진구 자양동 7-25,127.068211823648,37.5405243228801
맘스터치,맘스터치 송파방이점,서울 송파구 방이동 137-7,127.117321859518,37.5104030973471
맘스터치,맘스터치 문정역점,서울 송파구 문정동 651,127.12212377799062,37.4850781615002
맘스터치,맘스터치 성수역점,서울 성동구 성수동2가 317-1,127.05747864732174,37.54387184227469
맘스터치,맘스터치 서래마을점,서울 서초구 반포동 91-10,126.998507249843,37.498350036522
맘스터치,맘스터치 방배역점,서울 서초구 방배동 910-11,126.99671890608843,37.482469741583124
맘스터치,맘스터치 반포한강공원점,서울 서초구 반포동 115-5,126.99405080342673,37.50860153778532
맘스터치,맘스터치 가든파이브점,서울 송파구 문정동 634,127.12431554302039,37.47788853165218
맘스터치,맘스터치 광장동점,서울 광진구 광장동 470-3,127.09739002606099,37.541404863345754
맘스터치,맘스터치 가락쌍용점,서울 송파구 가락동 193-3,127.13108422669,37.4953652678608
맘스터치,맘스터치 어린이대공원역점,서울 광진구 화양동 111-118,127.073514416228,37.5466398269002
맘스터치,맘스터치 송파풍납점,서울 송파구 풍납동 406-1,127.11707494635,37.5290072444674
맘스터치,맘스터치 성동금호점,서울 성동구 금호동4가 561-2,127.021894587519,37.54794820843
맘스터치,맘스터치 동서울대점,경기 성남시 수정구 복정동 685-1,127.12647650551718,37.459373178722075
맘스터치,맘스터치 피자앤치킨 대치사거리점,서울 강남구 대치동 961,127.058972919111,37.5029737046582
맘스터치,맘스터치 피자앤치킨 건대점,서울 광진구 화양동 12-34,127.07055562292477,37.5433998372677
맘스터치,맘스터치 피자앤치킨 방배역점,서울 서초구 방배동 910-11,126.99676074091,37.4824364054116
맘스터치,맘스터치 강동명일점,서울 강동구 명일동 327-1,127.146277548446,37.5501806048839
맘스터치,맘스터치 강동역점,서울 강동구 천호동 158-3,127.134714684539,37.5365496365484
맘스터치,맘스터치 굽은다리역점,서울 강동구 천호동 50-13,127.14174648240935,37.54304752175391
맘스터치,맘스터치 천호로데오점,서울 강동구 천호동 453-24,127.12755199450643,37.53883711962933
맘스터치,맘스터치 암사역점,서울 강동구 천호동 287-1,127.1275543986,37.5495463886113
맘스터치,맘스터치 강동고덕점,서울 강동구 고덕동 645-7,127.152768977889,37.5591823540406
맘스터치,맘스터치 둔촌동역점,서울 강동구 성내동 440,127.13452384123694,37.52415748857975
맘스터치,맘스터치 강동강일점,서울 강동구 강일동 675-1,127.17395737118058,37.56558524398962
맘스터치,맘스터치 미사강변대로점,경기 하남시 풍산동 504-2,127.187853573288,37.5570378304518
맘스터치,맘스터치 미아사거리역점,서울 강북구 미아동 54-54,127.03098614187385,37.61379349679278
맘스터치,맘스터치 미아역점,서울 강북구 미아동 126-22,127.02737909339842,37.623980057109605
맘스터치,맘스터치 덕성여대점,서울 강북구 수유동 279-69,127.014513293098,37.6484170617239
맘스터치,맘스터치 삼양사거리점,서울 강북구 미아동 688-5,127.02050759860731,37.61948732584087
맘스터치,맘스터치 쌍문역점,서울 도봉구 창동 661-38,127.03570707119557,37.649688342995994
맘스터치,맘스터치 창동역점,서울 도봉구 창동 822,127.045541461745,37.6528708320035
맘스터치,맘스터치 쌍문세라믹점,서울 도봉구 쌍문동 19-15,127.035155308245,37.659487593596
맘스터치,맘스터치 월계역점,서울 노원구 월계동 951,127.05734288737655,37.62951036795873
맘스터치,맘스터치 장위뉴타운점,서울 성북구 장위동 323,127.05062005372264,37.61879620279854
맘스터치,맘스터치 신서경대점,서울 성북구 정릉동 227-178,127.01398849713848,37.61134694697261
맘스터치,맘스터치 노원로데오점,서울 노원구 상계동 593-2,127.06248413536474,37.65698236562034
맘스터치,맘스터치 상월곡역점,서울 성북구 상월곡동 23-143,127.05038371590948,37.60763035078791
맘스터치,맘스터치 국민대점,서울 성북구 정릉동 861-1,126.99398596275084,37.611803523251446
맘스터치,맘스터치 동덕여대점,서울 성북구 하월곡동 18-14,127.04256255947,37.6037465602509
맘스터치,맘스터치 석계역점,서울 노원구 월계동 56,127.0637327262557,37.6155399854165
맘스터치,맘스터치 과기대점,서울 노원구 공릉동 440-16,127.076825244447,37.6290325805629
맘스터치,맘스터치 노원중계점,서울 노원구 중계동 360-12,127.07639439675668,37.64859323771972
맘스터치,맘스터치 노원상계보람점,서울 노원구 상계동 456-55,127.06627429678268,37.663916052081156
맘스터치,맘스터치 돈암하늘채점,서울 성북구 돈암동 644,127.01335444441824,37.599752180467036
맘스터치,맘스터치 상계역점,서울 노원구 중계동 154-14,127.07404337877588,37.660266061476285
맘스터치,맘스터치 태릉입구역점,서울 노원구 공릉동 617-3,127.075460685786,37.6194649800951
맘스터치,맘스터치 성북종암점,서울 성북구 종암동 14-2,127.03515808912927,37.59805113345625
맘스터치,맘스터치 신성신여대점,서울 성북구 동선동1가 4-2,127.017853821103,37.5916723950689
맘스터치,맘스터치 서울외대점,서울 동대문구 이문동 288-65,127.060259123729,37.5961525096963
맘스터치,맘스터치 한성대입구역점,서울 성북구 삼선동1가 18,127.006834098147,37.5877848643231
맘스터치,맘스터치 경희대로점,서울 동대문구 회기동 16-70,127.052216625932,37.5921235032321
맘스터치,맘스터치 고대타이거플라자점,서울 성북구 안암동5가 1-2,127.0304771343854,37.58767571144413
맘스터치,맘스터치 고대하나스퀘어점,서울 성북구 안암동5가 1-2,127.02598917835991,37.584906231733875
맘스터치,맘스터치 종로대학로점,서울 종로구 명륜4가 12-3,127.000606835145,37.5833017192332
맘스터치,맘스터치 휘경점,서울 동대문구 휘경동 269-26,127.06136797190727,37.589596322140515
맘스터치,맘스터치 중랑역점,서울 중랑구 중화동 208-3,127.0762221526795,37.59422326775603
맘스터치,맘스터치 신설동역점,서울 동대문구 신설동 76-32,127.024828153507,37.5764587641326
맘스터치,맘스터치 상봉역점,서울 중랑구 상봉동 100-7,127.08614321338166,37.5968842790264
맘스터치,맘스터치 휘경여고점,서울 동대문구 전농동 1-205,127.068653205338,37.5825645658734
맘스터치,맘스터치 홈플러스동대문점,서울 동대문구 용두동 33-1,127.03876950896753,37.574548504366966
맘스터치,맘스터치 삼육대점,경기 남양주시 별내동 558-9,127.110593438754,37.6444954923032
맘스터치,맘스터치 피자앤치킨 도봉방학점,서울 도봉구 방학동 672-27,127.0371741784203,37.66264941946123
맘스터치,맘스터치 피자앤치킨 광운대점,서울 노원구 월계동 402-19,127.058561625793,37.6205737815592
맘스터치,맘스터치 피자앤치킨 종로성대점,서울 종로구 명륜2가 74-1,126.99714122735443,37.58541902023971
맘스터치,맘스터치 피자앤치킨 중랑신내점,서울 중랑구 신내동 492-24,127.10028711071335,37.600791516884655
맘스터치,맘스터치 까치산점,서울 강서구 화곡동 341-73,126.846938451049,37.5317880217844
맘스터치,맘스터치 화곡역점,서울 강서구 화곡동 1066-22,126.83784795450022,37.541147187063096
맘스터치,맘스터치 우장산역점,서울 강서구 내발산동 719-5,126.836064830295,37.5498654867628
맘스터치,맘스터치 마곡나루역점,서울 강서구 마곡동 758,126.82577463949366,37.569358214728894
맘스터치,맘스터치 양천향교역점,서울 강서구 마곡동 784-4,126.84019813145137,37.56551965826614
맘스터치,맘스터치 마곡LG사이언스파크2호점,서울 강서구 마곡동 789-4,126.834254795967,37.5618570266962
맘스터치,맘스터치 강서방화사거리점,서울 강서구 방화동 571-1,126.81350175493735,37.57358945333064
맘스터치,맘스터치 강서구청점,서울 강서구 화곡동 980-21,126.84893240643,37.5506214685256
맘스터치,맘스터치 마곡역홈앤쇼핑점,서울 강서구 마곡동 746-1,126.82346329182965,37.55925192211187
맘스터치,맘스터치 가양역점,서울 강서구 등촌동 75-1,126.85411295567711,37.561167843621035
맘스터치,맘스터치 마곡LG사이언스파크점,서울 강서구 마곡동 770-1,126.83122814701306,37.563423174170026
맘스터치,맘스터치 신서울등촌점,서울 양천구 목동 602-15,126.867526634204,37.5487444902268
맘스터치,맘스터치 목동2호점,서울 양천구 목동 782-1,126.86369985321004,37.53547382533869
맘스터치,맘스터치 신월점,서울 양천구 신월동 81-26,126.829762947484,37.5363127598225
맘스터치,맘스터치 양천목동로데오점,서울 양천구 신정동 903-27,126.860478546128,37.5258221475108
맘스터치,맘스터치 목동파리공원점,서울 양천구 목동 907-12,126.88005355078062,37.53618353600119
맘스터치,맘스터치 신정네거리역점,서울 양천구 신정동 1190-6,126.852499853922,37.5205181658603
맘스터치,맘스터치 목동점,서울 양천구 신정동 117-21,126.87447314326434,37.52208788085633
맘스터치,맘스터치 부천고강점,경기 부천시 오정구 고강동 371-8,126.81698363697956,37.52691423533747
맘스터치,맘스터치 양천구청점,서울 양천구 신정동 323-9,126.86244254668765,37.51591432750453
맘스터치,맘스터치 선유도역점,서울 영등포구 양평동4가 101-2,126.89418332154398,37.5375548493208
맘스터치,맘스터치 망원역점,서울 마포구 망원동 379-3,126.90949516172651,37.555540699232296
맘스터치,맘스터치 상암MBC점,서울 마포구 상암동 1603,126.890777336791,37.5811680937295
맘스터치,맘스터치 영등포구청역점,서울 영등포구 당산동3가 223-7,126.89759629774414,37.52561509101864
맘스터치,맘스터치 당산역점,서울 영등포구 당산동5가 33-8,126.89990333605144,37.53466312045279
맘스터치,맘스터치 고척사거리점,서울 구로구 고척동 189,126.85951892432081,37.50666839059
맘스터치,맘스터치 영등포문래점,서울 영등포구 문래동3가 83-3,126.89050926591612,37.51988736943078
맘스터치,맘스터치 마포구청역점,서울 마포구 성산동 592-6,126.90339889139688,37.56400974244895
맘스터치,맘스터치 도당여월점,경기 부천시 오정구 원종동 375-12,126.804078369171,37.51889354171306
맘스터치,맘스터치 동양미래대점,서울 구로구 고척동 52-196,126.8663470696446,37.50077743446634
맘스터치,맘스터치 구로신도림점,서울 구로구 신도림동 437-1,126.88320228539418,37.506473435822286
맘스터치,맘스터치 개봉역점,서울 구로구 개봉동 203-7,126.85833596177086,37.49406641800057
맘스터치,맘스터치 홍대입구역점,서울 마포구 서교동 353-2,126.920694185343,37.5550604117956
맘스터치,맘스터치 신도림테크노마트점,서울 구로구 구로동 3-25,126.890394997399,37.5067506301015
맘스터치,맘스터치 가재울점,서울 서대문구 북가좌동 481,126.91155328062797,37.5760732497736
맘스터치,맘스터치 오류동역점,서울 구로구 오류동 55-50,126.844860234911,37.4962119047098
맘스터치,맘스터치 부천오정점,경기 부천시 오정구 오정동 593,126.7833233552,37.5271546076345
맘스터치,맘스터치 구로구일역점,서울 구로구 구로동 642-108,126.87205871287,37.4951452638706
맘스터치,맘스터치 2층고척스카이돔점,서울 구로구 고척동 63-6,126.867088967908,37.4982122076442
맘스터치,맘스터치 4층고척스카이돔점,서울 구로구 고척동 63-6,126.867088967907,37.4982122076513
맘스터치,맘스터치 오류동역남부점,서울 구로구 오류동 155-10,126.842009737639,37.4912165526844
맘스터치,맘스터치 DMC향동점,경기 고양시 덕양구 향동동 529,126.8924286542144,37.59878760670278
맘스터치,맘스터치 홍대기숙사점,서울 마포구 상수동 72-1,126.924609911074,37.5494939087381
맘스터치,맘스터치 명지대점,서울 서대문구 남가좌동 343-3,126.92340615807436,37.57903499376137
맘스터치,맘스터치 행신역점,경기 고양시 덕양구 행신동 757-1,126.83535949993069,37.61529818698659
맘스터치,맘스터치 신림역점,서울 관악구 신림동 1433-51,126.9283104518223,37.48438971133129
맘스터치,맘스터치 관악사당역점,서울 관악구 남현동 1061-23,126.981359977261,37.475075534997
맘스터치,맘스터치 관악신대방역점,서울 관악구 신림동 518-5,126.91286091545695,37.486500299952205
맘스터치,맘스터치 낙성대역점,서울 관악구 봉천동 1686-12,126.96279667771692,37.47766425429632
맘스터치,맘스터치 관악대학동점,서울 관악구 신림동 238-10,126.939611439752,37.4702970319433
맘스터치,맘스터치 서울대입구역점,서울 관악구 봉천동 851-30,126.95362165986066,37.48217686690955
맘스터치,맘스터치 봉천현대시장점,서울 관악구 봉천동 899-4,126.946758328168,37.4859600110513
맘스터치,맘스터치 관악난곡점,서울 관악구 신림동 617-9,126.919473366392,37.4726528792978
맘스터치,맘스터치 남성역점,서울 동작구 사당동 220-10,126.969851643079,37.4854239517871
맘스터치,맘스터치 숭실대입구역점,서울 동작구 상도동 489-6,126.953560012694,37.4959208144982
맘스터치,맘스터치 상도역점,서울 동작구 상도1동 772-1,126.948796031587,37.5022159778643
맘스터치,맘스터치 사당역점,서울 서초구 방배동 444-9,126.98203547360438,37.477393937700654
맘스터치,맘스터치 이수점,서울 동작구 사당동 139-21,126.9810403083,37.4874373273238
맘스터치,맘스터치 신대방삼거리역점,서울 동작구 대방동 405-11,126.92791729146259,37.49936421146488
맘스터치,맘스터치 중앙대점,서울 동작구 흑석동 190-2,126.96045982029146,37.507677846928985
맘스터치,맘스터치 동작보라매점,서울 동작구 신대방동 498-49,126.91580856964,37.4966288566903
맘스터치,맘스터치 노량진1호점,서울 동작구 노량진동 211-44,126.94531271237626,37.51159568031748
맘스터치,맘스터치 노량진2호점,서울 동작구 노량진동 85-6,126.943224041479,37.5125380462054
맘스터치,맘스터치 구로디지털단지역점,서울 구로구 구로동 1123-1,126.9021863879797,37.48450612315135
맘스터치,맘스터치 대방역점,서울 동작구 대방동 342-5,126.925371713567,37.5118145208728
맘스터치,맘스터치 신풍역점,서울 영등포구 신길동 4937,126.9100565690346,37.50272172424894
맘스터치,맘스터치 여의나루점,서울 영등포구 여의도동 8,126.93312101826602,37.52667039551389
맘스터치,맘스터치 동여의도점,서울 영등포구 여의도동 53,126.93277674545195,37.519504527705394
맘스터치,맘스터치 구로시장점,서울 구로구 구로동 313-150,126.89110432370165,37.48948620938835
맘스터치,맘스터치 영등포대림점,서울 영등포구 대림동 713-6,126.89783958519949,37.49486402883795
맘스터치,맘스터치 가산센트럴점,서울 금천구 가산동 233-5,126.89055624722849,37.4753065339723
맘스터치,맘스터치 금천시흥사거리점,서울 금천구 시흥동 890,126.90190755671178,37.45215780868769
맘스터치,맘스터치 금천은행나무점,서울 금천구 시흥동 272-20,126.910261670007,37.4503840450061
맘스터치,맘스터치 가산디지털단지역점,서울 금천구 가산동 50-3,126.88378220811884,37.48110977128785
맘스터치,맘스터치 독산지식산업센터점,서울 금천구 독산동 291-1,126.895369569644,37.4691389758586
맘스터치,맘스터치 석수역DT점,경기 안양시 만안구 석수동 385-11,126.903498447655,37.431347481015
맘스터치,맘스터치 과천점,경기 과천시 중앙동 40-11,126.99126876622157,37.42838255892193
맘스터치,맘스터치 광명소하점,경기 광명시 소하동 1339-1,126.883906407867,37.4475895777991
맘스터치,맘스터치 삼각지역점,서울 용산구 한강로1가 50-1,126.97329568661503,37.53621169801006
맘스터치,맘스터치 광명하안점,경기 광명시 하안동 53,126.880362836251,37.4622130809443
맘스터치,맘스터치 중곡역점,서울 광진구 중곡동 166-34,127.083954442099,37.5657024732482
맘스터치,맘스터치 아차산역점,서울 광진구 중곡동 115-9,127.08974747862,37.5525184304764
맘스터치,맘스터치 동대문장안점,서울 동대문구 장안동 335-5,127.073995452691,37.5719260034233
맘스터치,맘스터치 산후조리원,서울 동대문구 답십리동 492-2,127.055629653384,37.565149787987
맘스터치,맘스터치 답십리역점,서울 동대문구 답십리동 494-1,127.05328216295727,37.566779871413935
맘스터치,맘스터치 한양대점,서울 성동구 행당동 3-29,127.04108922144,37.5604849782663
맘스터치,맘스터치 행당역점,서울 성동구 행당동 319-23,127.0338230240106,37.55802756155168
맘스터치,맘스터치 왕십리뉴타운점,서울 성동구 상왕십리동 816,127.02384252917487,37.56703726122741
맘스터치,맘스터치 서일대점,서울 중랑구 면목동 51-1,127.096343100896,37.5877781799299
맘스터치,맘스터치 신금호역점,서울 성동구 금호동1가 119,127.02025795143,37.5551528823757
맘스터치,맘스터치 약수역점,서울 중구 신당동 370-52,127.011889201656,37.5575894178696
맘스터치,맘스터치 광명철산점,경기 광명시 철산동 411,126.8677339923846,37.474880439979025
맘스터치,맘스터치 부천역곡점,경기 부천시 원미구 역곡동 79,126.80931822333392,37.48500542611291
맘스터치,맘스터치 피자앤치킨 개봉광명점,서울 구로구 개봉동 403-194,126.856770112283,37.4867943056841
맘스터치,맘스피자 오류동역남부점,서울 구로구 오류동 155-10,126.842026721802,37.4912057633098
맘스터치,맘스터치 피자앤치킨 대림동점,서울 영등포구 대림동 1125,126.90469490158762,37.49285150299803
맘스터치,맘스터치 소하사거리점,경기 광명시 소하동 920-5,126.879241846957,37.4360167788268
맘스터치,맘스터치 망월사역점,경기 의정부시 호원동 458-11,127.04806024212515,37.71032071111521
맘스터치,맘스터치 남양주별내1점,경기 남양주시 별내동 1084-5,127.115127244884,37.6513242103968
맘스터치,맘스터치 호원점,경기 의정부시 호원동 51-1,127.046333923541,37.7245018126323
맘스터치,맘스터치 별내북부역점,경기 남양주시 별내동 826-10,127.117797269288,37.665820166748
맘스터치,맘스터치 의정부신곡점,경기 의정부시 신곡동 717-8,127.057909144767,37.7313765105417
맘스터치,맘스터치 구리갈매점,경기 구리시 갈매동 601,127.11686169289466,37.63294783938949
맘스터치,맘스터치 의정부역점,경기 의정부시 의정부동 496-3,127.04480366950418,37.737544855875896
맘스터치,맘스터치 남양주청학점,경기 남양주시 별내면 청학리 417-3,127.118562802591,37.7081436961441
맘스터치,맘스터치 피자앤치킨 별내역점,경기 남양주시 별내동 1030,127.12109532730652,37.646186236826445
맘스터치,맘스터치 동대문DDP점,서울 중구 을지로7가 143,127.009660823741,37.5668915101626
맘스터치,맘스터치 동대문현대시티점,서울 중구 을지로6가 17-2,127.00766093165113,37.56871797526501
맘스터치,맘스터치 동국대점,서울 중구 충무로5가 90,126.99844374247236,37.56140212463354
맘스터치,맘스터치 종각역점,서울 종로구 종로2가 102-1,126.98435641504125,37.56992452137165
맘스터치,맘스터치 명동점,서울 중구 을지로2가 199-8,126.984107217206,37.5653888753896
맘스터치,맘스터치 서울시청점,서울 중구 무교동 21-3,126.97936303713591,37.56703606308955
맘스터치,맘스터치 마포공덕역점,서울 마포구 공덕동 473,126.95269441796493,37.54689199988361
맘스터치,맘스터치 마포대흥역점,서울 마포구 염리동 155-11,126.94441551528277,37.547009126827106
맘스터치,맘스터치 숙명여대점,서울 용산구 청파동2가 64-15,126.966025620661,37.5448963701335
맘스터치,맘스터치 피자앤치킨 낙성대역점,서울 관악구 봉천동 1686-12,126.962793287379,37.4776615502003
맘스터치,맘스터치 연희동점,서울 서대문구 연희동 137-10,126.93131293962414,37.567655790689535
맘스터치,맘스터치 신촌점,서울 서대문구 창천동 13-28,126.937761943492,37.5575709097844
맘스터치,맘스터치 은평응암점,서울 은평구 신사동 23-16,126.91531471944737,37.59836656319763
맘스터치,맘스터치 이대점,서울 서대문구 대현동 40-40,126.94476124466289,37.556943693765334
맘스터치,맘스터치 홍제역점,서울 서대문구 홍제동 330-52,126.94257664541128,37.58978210950353
맘스터치,맘스터치 은평구청점,서울 은평구 녹번동 208,126.92895115240769,37.60164885878243
맘스터치,맘스터치 구산역점,서울 은평구 역촌동 7-1,126.917108974752,37.6101086368237
맘스터치,맘스터치 은평갈현점,서울 은평구 갈현동 460-1,126.91870560149934,37.61765282293407
맘스터치,맘스터치 은평불광1호점,서울 은평구 불광동 542-1,126.932292011928,37.6139412200684
맘스터치,맘스터치 서대문역점,서울 서대문구 미근동 196,126.967598023845,37.5643133132939
맘스터치,맘스터치LAB 광화문점,서울 종로구 세종로 166-1,126.976222827438,37.5715233310408
맘스터치,맘스터치 남산서울타워점,서울 용산구 용산동2가 산 1-3,126.987868517227,37.5511211299728
맘스터치,맘스터치 구파발역점,서울 은평구 진관동 65,126.91931084788365,37.63929042289957
맘스터치,맘스터치LAB 이태원점,서울 용산구 이태원동 127-12,126.99422526926584,37.534221562491915
맘스터치,맘스터치앤컴퍼니 한국본사,서울 중구 충무로2가 49-31,126.9893176901849,37.56250987751061
맘스터치,맘스터치 송파마천점,서울 송파구 마천동 181,127.151181296048,37.4948240814822
맘스터치,맘스터치 위례중앙점,서울 송파구 장지동 895,127.14285443080999,37.47607005927795
맘스터치,맘스터치 하남감일점,경기 하남시 감일동 528-1,127.16161821592848,37.509797578784685
맘스터치,맘스터치 위례창곡점,경기 성남시 수정구 창곡동 513,127.15020676524804,37.4734795502579
맘스터치,맘스터치 삼송동산고점,경기 고양시 덕양구 동산동 361-2,126.88706680159981,37.645206854711155
맘스터치,맘스터치 지축역점,경기 고양시 덕양구 지축동 1007-9,126.91458339475291,37.64868615843269
맘스터치,맘스터치 고양원흥지구점,경기 고양시 덕양구 도내동 1025,126.86991404142907,37.630256271783416
맘스터치,맘스터치 신원마을점,경기 고양시 덕양구 신원동 621-1,126.88863914709745,37.66367848154643
맘스터치,맘스터치 서정마을점,경기 고양시 덕양구 행신동 1079-2,126.84612763215061,37.61853104602959
맘스터치,맘스터치 피자앤치킨 연대점,서울 서대문구 창천동 52-159,126.935092253764,37.5587083326485
맘스터치,맘스터치 양원역점,서울 중랑구 망우동 618,127.10633916406,37.6066435542342
맘스터치,맘스터치 구리한대병원점,경기 구리시 교문동 216-4,127.13389675260973,37.60047436064155
맘스터치,맘스터치 구리역점,경기 구리시 인창동 671-1,127.14111094855959,37.605050191316764
맘스터치,맘스터치 수택3점,경기 구리시 수택동 849-1,127.139641929894,37.591619973872
맘스터치,맘스터치 구리엘마트점,경기 구리시 인창동 430,127.141576630936,37.612342236853
맘스터치,맘스터치 남양주다산진건점,경기 남양주시 다산동 6130-2,127.15781191323971,37.619629552385575
맘스터치,맘스터치 남양주다산역점,경기 남양주시 다산동 6056,127.153312513188,37.625552262502
맘스터치,맘스터치 남양주도농점,경기 남양주시 다산동 6175-1,127.16635283905,37.6126612974995
롯데리아,롯데리아 학동역점,서울 강남구 논현동 89-22,127.03321879987563,37.5149869390675
롯데리아,롯데리아 강남일원점,서울 강남구 일원동 643-4,127.087278128334,37.4923044874572
롯데리아,롯데리아 한티역점,서울 강남구 대치동 936-11,127.05347958596204,37.49772165250337
롯데리아,롯데리아 압구정역점,서울 강남구 신사동 580-5,127.02805949838925,37.5263949745165
롯데리아,롯데리아 세곡점,서울 강남구 세곡동 581,127.1011135021255,37.46566413612496
롯데리아,롯데리아 수서역사점,서울 강남구 수서동 214-16,127.1041918003633,37.48540888672187
롯데리아,롯데리아 양재역점,서울 서초구 양재동 14-1,127.03638159380071,37.48271646823365
롯데리아,롯데리아 강남역SELECT점,서울 서초구 서초동 1327-8,127.027860135405,37.495277932335
롯데리아,롯데리아 양재동점,서울 서초구 양재동 333-2,127.0419167993865,37.46987975118286
롯데리아,롯데리아 송파삼전점,서울 송파구 삼전동 72-3,127.094554955251,37.5023757409859
롯데리아,롯데리아 남부터미널점,서울 서초구 서초동 1602-10,127.015928911667,37.485149213958
롯데리아,롯데리아 롯데백잠실광장점,서울 송파구 잠실동 40-1,127.098553055631,37.5120348472726
롯데리아,롯데리아 언더랜드점,서울 송파구 잠실동 40-1,127.09757119988302,37.5111040242511
롯데리아,롯데리아 서초중앙로점,서울 서초구 반포동 52-8,127.011368089614,37.5021166054215
롯데리아,롯데리아 송파점,서울 송파구 송파동 103-28,127.11356405912018,37.503390647054495
롯데리아,롯데리아 뚝섬유원지점,서울 광진구 자양동 74-14,127.066842221734,37.5323836665294
롯데리아,롯데리아 잠실롯데월드몰B1점,서울 송파구 신천동 29,127.10402961673378,37.51358167944662
롯데리아,롯데리아 건대입구역점,서울 광진구 화양동 48-17,127.067552764613,37.5412004515199
롯데리아,롯데리아 롯데월드몰점,서울 송파구 신천동 29,127.104302394716,37.5137129854214
롯데리아,롯데리아 건대스타시티점,서울 광진구 자양동 227-7,127.07303460140031,37.53850319884627
롯데리아,롯데리아 몽촌토성역점,서울 송파구 방이동 44-1,127.112537190006,37.516971563801
롯데리아,롯데리아 구의역점,서울 광진구 자양동 216-21,127.084125332041,37.5364811825425
롯데리아,롯데리아 롯데마트송파점,서울 송파구 문정동 150-2,127.11776438613846,37.491862667737955
롯데리아,롯데리아 방배역점,서울 서초구 방배동 908-3,126.996942749076,37.4830130558721
롯데리아,롯데리아 청계산입구역점,서울 서초구 신원동 611,127.05596497330245,37.447355832434674
롯데리아,롯데리아 성수역점,서울 성동구 성수동2가 277-17,127.05761988349238,37.54507100339226
롯데리아,롯데리아 송파하비오점,서울 송파구 문정동 618,127.122558978252,37.4815511650096
롯데리아,롯데리아 문정로데오점,서울 송파구 문정동 4-7,127.125871797026,37.4910515109082
롯데리아,롯데리아 강변씨네마점,서울 광진구 구의동 546-4,127.09558366384091,37.535730039907506
롯데리아,롯데리아 방이역점,서울 송파구 방이동 208,127.12370558585188,37.50975777246234
롯데리아,롯데리아 가든파이브점,서울 송파구 문정동 634,127.125759278982,37.4778933109058
롯데리아,롯데리아 과천렛츠런파크점,경기 과천시 주암동 685-2,127.013020990063,37.4470088606438
롯데리아,롯데리아 이수역점,서울 동작구 사당동 86-9,126.981944649045,37.488370913238
롯데리아,롯데리아 오금점,서울 송파구 오금동 126-4,127.1379801028468,37.50341060249948
롯데리아,롯데리아 강동구청DT점,서울 강동구 성내동 319-1,127.121201373017,37.5313853284036
롯데리아,버거랩바이롯데리아,서울 송파구 신천동 29,127.105002894755,37.513961041781
롯데리아,롯데마트 송파점,서울 송파구 문정동 150-2,127.11774721948497,37.49173203885067
롯데리아,엔제리너스 잠실샤롯데점,서울 송파구 잠실동 40-1,127.10003504572,37.5105487468182
롯데리아,엔제리너스 롯데시네건대점,서울 광진구 자양동 227-7,127.072917036634,37.5386149955018
롯데리아,롯데리아 길동점,서울 강동구 성내동 244-3,127.136308315839,37.5343673877606
롯데리아,롯데리아 천호역점,서울 강동구 천호동 429-2,127.124016513749,37.5397617070131
롯데리아,롯데리아 상일동점,서울 강동구 상일동 259,127.17273684198634,37.550232258734574
롯데리아,롯데리아 고덕역점,서울 강동구 명일동 47-12,127.154608248775,37.5532117578699
롯데리아,롯데리아 암사역점,서울 강동구 암사동 500-3,127.12838868933342,37.551682651197225
롯데리아,롯데리아 강일점,서울 강동구 강일동 676,127.173224372893,37.5657854416547
롯데리아,롯데리아 홈플러스강동점,서울 강동구 천호동 42,127.14249488763942,37.54566402201064
롯데리아,롯데리아 삼양사거리점,서울 강북구 미아동 701-5,127.01916321548758,37.6200173326419
롯데리아,롯데리아 수유역점,서울 강북구 수유동 230-10,127.02432488286,37.6370918764591
롯데리아,롯데리아 덕성여대점,서울 강북구 수유동 279-84,127.01396940009,37.6485000178543
롯데리아,롯데리아 미아역점,서울 강북구 미아동 125-31,127.027010180182,37.625003663424
롯데리아,롯데리아 번동점,서울 강북구 번동 410-94,127.032887202256,37.6355635314939
롯데리아,롯데리아 쌍문역점,서울 도봉구 창동 659-12,127.035068594357,37.6486109585401
롯데리아,롯데리아 창동역점,서울 도봉구 창동 74-8,127.046352578094,37.6524488561843
롯데리아,롯데리아 방학점,서울 도봉구 방학동 669-3,127.03277424143549,37.662110135297006
롯데리아,롯데리아 월계역점,서울 노원구 월계동 951-1,127.057380477046,37.6312510547502
롯데리아,롯데리아 홈플러스방학점,서울 도봉구 방학동 707-7,127.04357894885392,37.664859135484896
롯데리아,롯데리아 노원역점,서울 노원구 상계동 617,127.062242903876,37.6558112164762
롯데리아,롯데리아 정릉점,서울 성북구 정릉동 411-33,127.010817788423,37.6070874022704
롯데리아,롯데리아 길음뉴타운점,서울 성북구 길음동 1286-10,127.02242643204737,37.60451254002928
롯데리아,롯데리아 석관점,서울 성북구 석관동 255-2,127.057570339226,37.6100867647852
롯데리아,롯데리아 석계점,서울 노원구 월계동 50-29,127.064011902095,37.6148550831597
롯데리아,롯데리아 공릉역점,서울 노원구 공릉동 388-3,127.074348431068,37.6263492277623
롯데리아,롯데리아 GS마트상계점,서울 노원구 상계동 684,127.065613796167,37.6642101411062
롯데리아,롯데리아 홈플러스월곡점,서울 성북구 하월곡동 46-73,127.04044502780681,37.60198271535082
롯데리아,롯데리아 성신여대점,서울 성북구 동선동4가 104,127.017777299151,37.5936617968203
롯데리아,롯데리아 종암점,서울 성북구 종암동 68-1,127.03443580862769,37.598435168590555
롯데리아,롯데리아 수락산역점,서울 노원구 상계동 1132-107,127.055613447911,37.6771929943653
롯데리아,롯데리아 상계점,서울 노원구 중계동 157-33,127.073972429613,37.6584353114807
롯데리아,롯데리아 외대역점,서울 동대문구 이문동 288-26,127.06091941844001,37.5963179531321
롯데리아,롯데리아 한성대입구역점,서울 성북구 동소문동2가 1-2,127.006820567047,37.5883939361365
롯데리아,롯데리아 혜화점,서울 종로구 혜화동 111-7,127.0006430855,37.5857884602544
롯데리아,롯데리아 중화역점,서울 중랑구 중화동 286-25,127.07968627312566,37.601986620360286
롯데리아,롯데리아 먹골역점,서울 중랑구 묵동 174-29,127.078013297347,37.6124806618375
롯데리아,롯데리아 청량리점,서울 동대문구 청량리동 260,127.045850810247,37.5809033812147
롯데리아,롯데리아 중랑역점,서울 중랑구 상봉동 136-80,127.074315493842,37.5932541157008
롯데리아,롯데리아 청량리역사점,서울 동대문구 전농동 591-53,127.04832206169196,37.58065011723611
롯데리아,롯데리아 홈플러스신내점,서울 중랑구 신내동 645,127.093606836257,37.6160498508608
롯데리아,롯데리아 제기역점,서울 동대문구 용두동 104-3,127.032952386089,37.5778911587913
롯데리아,롯데리아 상봉역점,서울 중랑구 상봉동 115-14,127.083997185298,37.5956947155126
롯데리아,롯데리아 홈플러스 상봉점,서울 중랑구 상봉동 500,127.0900420260414,37.59790309278666
롯데리아,롯데리아 동묘역점,서울 종로구 창신동 326-6,127.0150600377,37.572607761011
롯데리아,롯데리아 별내점,경기 남양주시 별내동 1097-2,127.112501103631,37.6502095256013
롯데리아,롯데리아 동대문광장점,서울 종로구 창신동 444-4,127.010242032346,37.5708387228462
롯데리아,롯데리아 면목중앙점,서울 중랑구 면목동 126-39,127.087223379478,37.5890322446018
롯데리아,롯데리아 종암점 개방화장실,서울 성북구 종암동 68-1,127.034483362526,37.5984216398411
롯데리아,롯데리아 성신여대점 개방화장실,서울 성북구 동선동4가 104,127.01777729915109,37.593661796820264
롯데리아,홈플러스 메가푸드마켓 방학점,서울 도봉구 방학동 707-7,127.043667346598,37.6648473900421
롯데리아,롯데리아 까치산역점,서울 강서구 화곡동 343-59,126.84694698282338,37.53093478536861
롯데리아,롯데리아 발산역점,서울 강서구 등촌동 674-6,126.84020218942791,37.55938045949591
롯데리아,롯데리아 신방화역점,서울 강서구 마곡동 739-3,126.81890493839664,37.56699628102237
롯데리아,롯데리아 강서구청점,서울 강서구 화곡동 1116-3,126.851201775671,37.5532705794736
롯데리아,롯데리아 등촌역점,서울 강서구 염창동 275,126.867604944811,37.5498951524431
롯데리아,롯데리아 화곡역점,서울 강서구 화곡동 1065-9,126.839215104231,37.5415445949643
롯데리아,롯데리아 마곡역점,서울 강서구 마곡동 798-14,126.82489578568428,37.55843504991486
롯데리아,롯데리아 김포국제공항국내선청사4층점,서울 강서구 공항동 1373-5,126.80280420971407,37.55859303294747
롯데리아,롯데리아 신김포공항점,서울 강서구 공항동 1373,126.802874550192,37.5589580536937
롯데리아,롯데리아 김포국제공항국내선,서울 강서구 공항동 1373,126.8034785627281,37.55866443498299
롯데리아,롯데리아 화곡시장점,서울 강서구 화곡동 373-12,126.837822684664,37.5345293117754
롯데리아,롯데리아 방화점,서울 강서구 방화동 450-15,126.81167424542778,37.57376855280898
롯데리아,롯데리아 NC강서점,서울 강서구 등촌동 689,126.8402398324898,37.56030295020812
롯데리아,롯데리아 목동사거리점,서울 양천구 목동 792-6,126.864102307953,37.5325406322893
롯데리아,롯데리아 신정네거리역점,서울 양천구 신정동 973-32,126.85406136071,37.5214517418304
롯데리아,롯데리아 목동킴스클럽점,서울 양천구 목동 917-6,126.876027980041,37.5292885262818
롯데리아,롯데리아 신곡시장점,서울 양천구 신월동 536-3,126.84278812957,37.51905862867899
롯데리아,롯데리아 고양덕은점,경기 고양시 덕양구 덕은동 718,126.87107592708576,37.5799823353954
롯데리아,롯데리아 목동점,서울 양천구 신정동 89-26,126.8738670274396,37.52128354111716
롯데리아,롯데리아 부천고강점,경기 부천시 오정구 고강동 471-5,126.81545442674374,37.52770743936955
롯데리아,롯데리아 홈플러스월드컵점,서울 마포구 성산동 515,126.89652048375117,37.56733940013502
롯데리아,롯데리아 상암점,서울 마포구 상암동 1601,126.888890132392,37.5803770623186
롯데리아,롯데리아 롯데마트서울양평점,서울 영등포구 양평동3가 45,126.891571567578,37.5260656204487
롯데리아,롯데리아 망원점,서울 마포구 망원동 377-2,126.909596080594,37.5563165352104
롯데리아,롯데리아 부천원종점,경기 부천시 오정구 원종동 280-13,126.80512198947,37.52341919693
롯데리아,롯데리아 신도림역점,서울 구로구 신도림동 337,126.88770295575736,37.50919432864742
롯데리아,롯데리아 홈플러스 영등포점,서울 영등포구 문래동3가 55-3,126.895325428865,37.5186033019058
롯데리아,롯데리아 개봉점,서울 구로구 고척동 52-197,126.866526002808,37.5006370799348
롯데리아,롯데리아 홍대점,서울 마포구 동교동 160-5,126.92184211724226,37.55579909414032
롯데리아,롯데리아 가좌역점,서울 서대문구 남가좌동 269-1,126.913625388855,37.5707697276921
롯데리아,롯데리아 개봉역점,서울 구로구 개봉동 182-4,126.85856636621817,37.4948145292617
롯데리아,롯데리아 오류동역점,서울 구로구 오류동 52-7,126.84357307519028,37.49525514111612
롯데리아,롯데리아 영등포타임스퀘어B2점,서울 영등포구 영등포동4가 442,126.90259653894041,37.51693365625491
롯데리아,롯데리아 부천오정점,경기 부천시 오정구 오정동 725,126.786098825678,37.5297941914248
롯데리아,롯데리아 영등포역사역,서울 영등포구 영등포동 618-496,126.9076656559073,37.51566821406192
롯데리아,롯데리아 부천도당점,경기 부천시 원미구 도당동 58-2,126.789533977184,37.5199902671821
롯데리아,롯데리아 롯데마트맥스영등포점,서울 영등포구 영등포동8가 62-1,126.904683242843,37.5278167643562
롯데리아,롯데리아 DMC향동점,경기 고양시 덕양구 향동동 465,126.891630577134,37.6017331151356
롯데리아,롯데리아 창천점,서울 서대문구 창천동 506-17,126.928775075002,37.5582541923167
롯데리아,롯데리아 응암오거리점,서울 은평구 응암동 598-4,126.91640335305749,37.58787439073275
롯데리아,롯데리아 고양행신역점,경기 고양시 덕양구 행신동 714-4,126.83385234523266,37.6146149280315
롯데리아,롯데리아 명지대학점,서울 서대문구 남가좌동 324-31,126.924276161877,37.5796013791561
롯데리아,롯데리아 천왕역점,서울 구로구 천왕동 282-2,126.838405368642,37.486784129857
롯데리아,롯데리아 광명철산점,경기 광명시 철산동 93-2,126.866237129994,37.4856953619287
롯데리아,롯데리아 대림역점,서울 영등포구 대림동 706-3,126.898386316238,37.4936265172508
롯데리아,롯데리아 구로디지털역점,서울 관악구 신림동 1643,126.903075369205,37.4842888118053
롯데리아,롯데리아 서울대입구역점,서울 관악구 봉천동 863-1,126.95218372307559,37.480055318702505
롯데리아,롯데리아 신림역점,서울 관악구 신림동 1640-9,126.929311544328,37.4839037700014
롯데리아,롯데리아 봉천역점,서울 관악구 봉천동 930-45,126.941677680995,37.4822166252654
롯데리아,롯데리아 봉천점,서울 관악구 봉천동 31-1,126.954936914446,37.4835018586207
롯데리아,롯데리아 신림녹두점,서울 관악구 신림동 1523-1,126.9344790428174,37.47048170774607
롯데리아,롯데리아 세이브마트점,서울 관악구 신림동 607-73,126.917540676322,37.4743130087042
롯데리아,롯데리아 서울대점,서울 관악구 신림동 산 56-1,126.952487545444,37.4591087446299
롯데리아,롯데리아 남성역점,서울 동작구 사당동 249-84,126.970448912724,37.4847321282517
롯데리아,롯데리아 숭실대입구역점,서울 동작구 상도동 477-15,126.95261336621236,37.49792878209975
롯데리아,롯데리아 보라매타운점,서울 동작구 신대방동 395-65,126.923288214094,37.4919766463006
롯데리아,롯데리아 성대시장점,서울 동작구 상도동 320-21,126.9316598821208,37.50007012152993
롯데리아,롯데리아 중앙대점,서울 동작구 흑석동 182-7,126.96146837065,37.5082854574892
롯데리아,롯데리아 노량진점,서울 동작구 노량진동 45-5,126.940029468812,37.5130230096634
롯데리아,롯데리아 대방역점,서울 영등포구 신길동 1330,126.924180949329,37.5126787264297
롯데리아,롯데리아 시흥현대시장점,서울 금천구 시흥동 813,126.905337251787,37.4587416016602
롯데리아,롯데리아 시흥중앙점,서울 금천구 시흥동 911-2,126.908828091919,37.4508370585508
롯데리아,롯데리아 용산역사점,서울 용산구 한강로3가 40-999,126.96420238256992,37.528897667722376
롯데리아,롯데리아 구로IT점,서울 구로구 구로동 197-22,126.894385981289,37.4852868888892
롯데리아,롯데리아 구로시장점,서울 구로구 구로동 141-5,126.891534701459,37.4897857397185
롯데리아,롯데리아 가산디지털단지점,서울 금천구 가산동 60-14,126.885099985873,37.4807074082908
롯데리아,롯데리아 홈플러스금천점,서울 금천구 독산동 291-7,126.89659391267506,37.46907608186698
롯데리아,롯데리아 용산역사ST점,서울 용산구 한강로3가 40-999,126.96440208113724,37.53004920808793
롯데리아,롯데리아 가산IT점,서울 금천구 가산동 345-30,126.881874728365,37.4754522465054
롯데리아,롯데리아 광명소하점,경기 광명시 소하동 38-2,126.890082555096,37.4505994619338
롯데리아,롯데리아 광명하안점,경기 광명시 하안동 34-8,126.878928120504,37.4624188523755
롯데리아,롯데리아 숙대입구역점,서울 용산구 갈월동 89-9,126.972113995765,37.54353565389
롯데리아,롯데리아 대흥역점,서울 마포구 대흥동 803,126.94128739182,37.5474743302672
롯데리아,F_위치보완 서울랜드2호점,경기 과천시 막계동 33,127.02402251301814,37.43646165688323
롯데리아,롯데리아 아차산역점,서울 광진구 구의동 53-4,127.09019461507,37.5516783597554
롯데리아,롯데리아 중곡점,서울 광진구 중곡동 193-49,127.081178752679,37.56542690771
롯데리아,롯데리아 장한평역점,서울 동대문구 장안동 416-8,127.06371643743368,37.56190481705204
롯데리아,롯데리아 답십리점,서울 성동구 용답동 62-2,127.054212641684,37.5652910025484
롯데리아,롯데리아 장안사거리점,서울 동대문구 장안동 308-2,127.072239337235,37.5726731148389
롯데리아,롯데리아 왕십리역사점,서울 성동구 행당동 168-151,127.038273511647,37.5609400269841
롯데리아,롯데리아 사가정역점,서울 중랑구 면목동 497-23,127.088446660404,37.5817657284958
롯데리아,롯데리아 롯데마트행당역점,서울 성동구 행당동 346,127.02886309251004,37.55672063011654
롯데리아,롯데리아 금호점,서울 성동구 금호동3가 1305-3,127.018490788105,37.548410101863
롯데리아,롯데리아 신당역점,서울 중구 신당동 130-20,127.019319022393,37.5654928800013
롯데리아,롯데리아 청구역점,서울 중구 신당동 333-79,127.013087893248,37.5584551494403
롯데리아,롯데리아 광명점,경기 광명시 광명동 158-520,126.854174603142,37.4783567945063
롯데리아,롯데리아 역곡역점,경기 부천시 원미구 역곡동 77-10,126.81051501360206,37.48568580989435
롯데리아,롯데리아 부천옥길점,경기 부천시 소사구 옥길동 727-2,126.82285205316923,37.46835783502102
롯데리아,롯데리아 목동사거리점 개방화장실,서울 양천구 목동 792-6,126.864007232419,37.5325621468566
롯데리아,엔제리너스 영등포역사점,서울 영등포구 영등포동 618-501,126.907871489653,37.515694503888
롯데리아,롯데리아 롯데아울렛광명점,경기 광명시 일직동 500,126.88435197980532,37.423888802823875
롯데리아,롯데리아 의정부 회룡역점,경기 의정부시 호원동 425,127.04846926370672,37.72540102469749
롯데리아,롯데리아 별내신도시점,경기 남양주시 별내동 931-3,127.12548862829364,37.657777287934394
롯데리아,롯데리아 의정부신곡점,경기 의정부시 신곡동 334-2,127.059591178277,37.7295989580034
롯데리아,롯데리아 구리갈매점,경기 구리시 갈매동 601-2,127.117840309829,37.6328117182681
롯데리아,롯데리아 의정부제일점,경기 의정부시 의정부동 170-11,127.04996417075057,37.73872935843441
롯데리아,롯데리아 남양주청학점,경기 남양주시 별내면 청학리 414,127.118037272546,37.708565879132
롯데리아,롯데리아 의정부시청점,경기 의정부시 의정부동 490,127.038128458482,37.7379075918935
롯데리아,KB국민은행 롯데리아 남양주청학점 ATM,경기 남양주시 별내면 청학리 414,127.11787865317721,37.708659739079735
롯데리아,롯데리아 동대문역사문화공원역점,서울 중구 을지로6가 18-131,127.00612131905258,37.566495308534726
롯데리아,롯데리아 소공2호점,서울 중구 을지로1가 140-1,126.98210934296787,37.56580304774062
롯데리아,롯데리아 영풍문고 종각종로본점,서울 종로구 서린동 33,126.982179731242,37.5696683301646
롯데리아,롯데리아 망우점,서울 중랑구 망우동 461-1,127.09945141786,37.595711537226
롯데리아,롯데리아 후암점,서울 용산구 후암동 27-13,126.97734187741938,37.55066727805938
롯데리아,엔제리너스 이수역점,서울 동작구 사당동 708-435,126.98101684570864,37.48632187550494
롯데리아,융성산업,서울 동작구 상도동 325-4,126.93138180444096,37.49993571044632
롯데리아,롯데리아 신촌역점,서울 서대문구 창천동 20-51,126.93906697378533,37.55605250902828
롯데리아,롯데리아 이대점,서울 서대문구 대현동 56-2,126.94504148351712,37.559079187769385
롯데리아,롯데리아 응암점,서울 은평구 응암동 98-65,126.922946117956,37.6003017142332
롯데리아,롯데리아 녹번점,서울 은평구 응암동 74-3,126.93059932173905,37.601132670946114
롯데리아,롯데리아 서대문역점,서울 서대문구 충정로2가 8-2,126.96600934891048,37.56577608432339
롯데리아,롯데리아 용산서계점,서울 용산구 서계동 263-2,126.96391048808343,37.55239565531198
롯데리아,롯데리아 구산역점,서울 은평구 역촌동 1-40,126.91720736066762,37.61024115127472
롯데리아,롯데리아 불광역점,서울 은평구 불광동 281-178,126.930982249351,37.6095310218204
롯데리아,롯데리아 홍은포방점,서울 서대문구 홍은동 9-92,126.948335568911,37.5991983306791
롯데리아,롯데리아 서울역사점,서울 중구 봉래동2가 122-11,126.97057199663817,37.55426527218926
롯데리아,롯데리아 연신내역점,서울 은평구 갈현동 398-8,126.920081750605,37.6187592749995
롯데리아,롯데리아 구파발역점,서울 은평구 진관동 68-35,126.91895643844032,37.63804411817438
롯데리아,롯데리아 답십리점 개방화장실,서울 성동구 용답동 62-2,127.054183202964,37.5652775011221
롯데리아,엔제리너스 명동점,서울 중구 명동1가 54-8,126.983583435709,37.5641093890974
롯데리아,롯데리아 마천점,서울 송파구 마천동 181,127.150838296848,37.4952065464941
롯데리아,롯데리아 위례역점,경기 성남시 수정구 창곡동 547-4,127.14013026629684,37.46660821345825
롯데리아,롯데리아 지축역점,경기 고양시 덕양구 지축동 1007-9,126.914603627348,37.6488294293942
롯데리아,롯데리아 고양삼송점,경기 고양시 덕양구 동산동 372,126.89768127224475,37.64959171241604
롯데리아,롯데리아 고양원흥점,경기 고양시 덕양구 도내동 957,126.8714204627881,37.635027738900675
롯데리아,엔제리너스 선유도역점,서울 영등포구 양평동5가 21,126.89294581088603,37.53733839496874
롯데리아,롯데리아 양원역점,서울 중랑구 망우동 613-11,127.107608111657,37.6070172156086
롯데리아,롯데리아 구리인창점,경기 구리시 인창동 383-52,127.13870033797386,37.607730788795784
롯데리아,롯데리아 구리돌다리점,경기 구리시 수택동 524-2,127.14262430075068,37.59930366135385
롯데리아,롯데리아 구리토평점,경기 구리시 수택동 873-7,127.138192783408,37.586813987173
롯데리아,롯데리아 다산진건점,경기 남양주시 다산동 6053,127.15535087010224,37.62577304101591
롯데리아,롯데리아 다산점,경기 남양주시 다산동 4001-29,127.15785759855503,37.60802026308242
롯데리아,롯데리아 퇴계원점,경기 남양주시 퇴계원읍 퇴계원리 295-3,127.141182278679,37.6493605955347
버거킹,버거킹 신논현역점,서울 강남구 논현동 200-6,127.02507134769647,37.50490670816603
버거킹,버거킹 강남대로점,서울 강남구 역삼동 820-10,127.02752560187551,37.498878432916044
버거킹,버거킹 선릉역점,서울 강남구 역삼동 708-36,127.04934989684385,37.5032078731535
버거킹,버거킹 청담점,서울 강남구 청담동 85-5,127.039716340014,37.5242292245094
버거킹,버거킹 수서점,서울 강남구 수서동 724,127.103007345983,37.4874155687391
버거킹,버거킹 대치점,서울 강남구 대치동 941-24,127.05934156937369,37.49864058277916
버거킹,버거킹 차병원사거리점,서울 강남구 논현동 192-19,127.03351066310148,37.50747248019138
버거킹,버거킹 삼성중앙역점,서울 강남구 삼성동 145,127.05374716592515,37.51289175580878
버거킹,버거킹 강남도곡점,서울 강남구 도곡동 410-10,127.04189359201702,37.48500951112493
버거킹,버거킹 양재점,서울 서초구 양재동 23,127.0341173709909,37.48368482703679
버거킹,버거킹 종합운동장사거리점,서울 송파구 잠실동 175-6,127.0789860748957,37.51158643619488
버거킹,버거킹 교대역점,서울 서초구 서초동 1715-10,127.01275316845236,37.49365511250191
버거킹,버거킹 석촌점,서울 송파구 송파동 15-8,127.10638142093951,37.50658238629044
버거킹,버거킹 반포고속터미널점,서울 서초구 반포동 19-4,127.006559720374,37.5059705708362
버거킹,버거킹 건대입구역점,서울 광진구 화양동 7-3,127.0692416126555,37.54065076451486
버거킹,버거킹 송파나루역점,서울 송파구 방이동 110,127.11267873711635,37.51030220030386
버거킹,버거킹 가락시장역점,서울 송파구 가락동 112-9,127.121607439682,37.4936815110009
버거킹,버거킹 강남NC점,서울 서초구 잠원동 70-1,127.006989895043,37.5102593294089
버거킹,버거킹 문정역점,서울 송파구 문정동 651-6,127.122532347239,37.484629036544
버거킹,버거킹 건대스타시티점,서울 광진구 자양동 227-7,127.072991657987,37.5385572853933
버거킹,버거킹 방배점,서울 서초구 방배동 925-3,126.99488934997765,37.48531235869854
버거킹,버거킹 구의점,서울 광진구 구의동 213-1,127.093936822265,37.5397588315289
버거킹,버거킹 문정점,서울 송파구 문정동 116-4,127.131652696145,37.48808720405783
버거킹,버거킹 방배카페골목점,서울 서초구 방배동 755-4,126.985574865132,37.4969994575458
버거킹,버거킹 군자능동점,서울 광진구 군자동 235,127.07654710284775,37.55217093083441
버거킹,버거킹 위례신도시GS점,서울 송파구 장지동 934-6,127.132289450077,37.475352542609
버거킹,버거킹 강동구청점,서울 강동구 성내동 552,127.122818506722,37.5295636358381
버거킹,버거킹 강남도곡점 주차장,서울 강남구 도곡동 410-9,127.041961401977,37.4849554265597
버거킹,버거킹 길동사거리점,서울 강동구 길동 429,127.139091528292,37.5343317065055
버거킹,버거킹 둔촌GS FS점,서울 강동구 성내동 439-16,127.13453560683881,37.52440975567898
버거킹,버거킹 하남미사점,경기 하남시 풍산동 522-1,127.18609259179576,37.55431961003908
버거킹,버거킹 수유역점,서울 강북구 번동 446-8,127.02402206815022,37.636124280392714
버거킹,버거킹 미아역점,서울 강북구 미아동 121-21,127.02674303091683,37.62552990064345
버거킹,버거킹 쌍문SK점,서울 도봉구 쌍문동 103-7,127.032098262499,37.6451484230932
버거킹,버거킹 쌍문점,서울 도봉구 쌍문동 20-4,127.03528238786008,37.658604593544624
버거킹,버거킹 창동역점,서울 도봉구 창동 16,127.051330964966,37.6527711487749
버거킹,버거킹 노원역점,서울 노원구 상계동 734-5,127.0586883751854,37.653556978668036
버거킹,버거킹 종암점,서울 성북구 종암동 3-1343,127.0332286513988,37.60090152655062
버거킹,버거킹 공릉역점,서울 노원구 공릉동 379-20,127.072178339149,37.6267289895292
버거킹,버거킹 하계점,서울 노원구 하계동 256-8,127.0752345769051,37.63899850428409
버거킹,버거킹 석관점,서울 성북구 석관동 301-1,127.059594143753,37.6085648902672
버거킹,버거킹 성신여대입구역점,서울 성북구 동선동1가 118-1,127.0182981304603,37.59353017241804
버거킹,버거킹 먹골역점,서울 중랑구 묵동 180-55,127.078214475444,37.6099127103199
버거킹,버거킹 경희대점,서울 동대문구 회기동 16-64,127.052141674896,37.5918081891796
버거킹,버거킹 화랑대역점,서울 노원구 공릉동 90-4,127.086824485079,37.6218628023776
버거킹,버거킹 안암오거리점,서울 성북구 안암동5가 104-291,127.02914157133779,37.58304224153152
버거킹,버거킹 혜화역점,서울 종로구 혜화동 179-4,127.00217940252031,37.583435948686535
버거킹,버거킹 중랑역점,서울 중랑구 상봉동 130-3,127.07474694887345,37.593300694818566
버거킹,버거킹 신설동역점,서울 동대문구 신설동 131-50,127.02351146638577,37.57610494290026
버거킹,버거킹 동대문구청점,서울 동대문구 용두동 29-4,127.03843624311601,37.57587307535511
버거킹,버거킹 망우점,서울 중랑구 망우동 490-8,127.09670377739718,37.59876547665416
버거킹,버거킹 동대문중학교사거리점,서울 동대문구 답십리동 111,127.05265521759722,37.57339616123562
버거킹,버거킹 남양주별내신안점,경기 남양주시 별내동 1097-3,127.112874720386,37.6499920318767
버거킹,버거킹 면목역점,서울 중랑구 면목동 1216,127.08794029352691,37.588244245394
버거킹,버거킹 마곡점,서울 강서구 마곡동 797-6,126.8338275445054,37.56006704843297
버거킹,버거킹 화곡역점,서울 강서구 화곡동 1073-11,126.83792009797553,37.54075084658408
버거킹,버거킹 등촌역점,서울 강서구 염창동 272-9,126.867064581321,37.5502143995651
버거킹,버거킹 송정역점,서울 강서구 공항동 42-4,126.81074292209038,37.56111529813483
버거킹,버거킹 가양역점,서울 강서구 등촌동 73-1,126.85324478610656,37.56177764294381
버거킹,버거킹 내발산점,서울 강서구 내발산동 677-9,126.83670742401992,37.55306131360706
버거킹,버거킹 마곡원그로브몰점,서울 강서구 마곡동 769,126.82629506455251,37.56069951764877
버거킹,버거킹 신월점,서울 양천구 신월동 54-7,126.82922820812138,37.539099679647165
버거킹,버거킹 염창역점,서울 양천구 목동 514-5,126.87464929828303,37.546612395415515
버거킹,버거킹 목동역점,서울 양천구 신정동 994-2,126.86408493791627,37.52590203695614
버거킹,버거킹 신정네거리역점,서울 양천구 신정동 1190-4,126.85227077733677,37.52080890326496
버거킹,버거킹 부천원종점,경기 부천시 오정구 원종동 375-1,126.804620272359,37.519735074054
버거킹,버거킹 양평점,서울 영등포구 양평동3가 5-4,126.89126690588267,37.52552383829706
버거킹,버거킹 마포구청역점,서울 마포구 망원동 474-3,126.90491546870712,37.56143142143796
버거킹,버거킹 영등포KT점,서울 영등포구 영등포동8가 35-1,126.90534934257846,37.52711541982242
버거킹,버거킹 서교동사거리점,서울 마포구 서교동 372-1,126.918568020291,37.5526578058316
버거킹,버거킹 가재울뉴타운점,서울 서대문구 북가좌동 487,126.91274829326468,37.57061771554708
버거킹,버거킹 개봉점,서울 구로구 개봉동 403-56,126.85574648936633,37.49050070458292
버거킹,버거킹 고양향동점,경기 고양시 덕양구 향동동 528,126.892891210548,37.5991997800685
버거킹,버거킹 구로구청점,서울 구로구 구로동 83-4,126.88875914683985,37.494842312439076
버거킹,버거킹 고양행신역점,경기 고양시 덕양구 행신동 707-4,126.83379890233448,37.613182282294154
버거킹,버거킹 신길점,서울 영등포구 신길동 110-4,126.917125312291,37.5126019064601
버거킹,버거킹 연희점,서울 서대문구 연희동 188-2,126.93060849725718,37.56685529459564
버거킹,버거킹 고양서정마을점,경기 고양시 덕양구 행신동 1086,126.84645251886779,37.61752416549088
버거킹,버거킹 연세로점,서울 서대문구 창천동 33-38,126.9367363175803,37.5578622877725
버거킹,버거킹 신촌1점,서울 서대문구 창천동 20-41,126.93927062155718,37.556133703722296
버거킹,버거킹 김포현대아울렛점,경기 김포시 고촌읍 전호리 654,126.78539569968603,37.59864512608447
버거킹,버거킹 신길점 주차장,서울 영등포구 신길동 110-4,126.917204533039,37.5125614168384
버거킹,버거킹 연세로점 개방화장실,서울 서대문구 창천동 33-38,126.9367362962515,37.55788751568074
버거킹,버거킹 신림역점,서울 관악구 신림동 1641-17,126.930132369156,37.48272123408076
버거킹,버거킹 서울대입구역점,서울 관악구 봉천동 875-8,126.9496989291752,37.48136165103376
버거킹,버거킹 낙성대점,서울 관악구 봉천동 1658-2,126.96379092885,37.4766500263963
버거킹,버거킹 당곡역점,서울 관악구 봉천동 702-49,126.927072003135,37.4905914914036
버거킹,버거킹 신림미림여고입구점,서울 관악구 신림동 1513-1,126.93355226024295,37.47154708552421
버거킹,버거킹 사당역점,서울 동작구 사당동 1031-27,126.981399827455,37.4784993779938
버거킹,버거킹 신대방삼거리역점,서울 동작구 대방동 335-16,126.92980766521401,37.499864507144515
버거킹,버거킹 노량진점,서울 동작구 노량진동 151-11,126.94482905246198,37.51407321655831
버거킹,버거킹 구로점,서울 구로구 구로동 1126-6,126.90061411276082,37.48243970002496
버거킹,버거킹 금천독산점,서울 금천구 독산동 288-1,126.8978155198867,37.47102152485567
버거킹,버거킹 금천구청입구삼거리점,서울 금천구 시흥동 108-76,126.899136216278,37.4573200806734
버거킹,버거킹 가산이앤씨7점,서울 금천구 가산동 60-44,126.88688956571278,37.480068517876376
버거킹,버거킹 용산이마트점,서울 용산구 한강로3가 40-999,126.9657746312483,37.529561271008106
버거킹,버거킹 국제점,서울 용산구 한강로2가 191,126.967811722396,37.5279904968412
버거킹,버거킹 과천중앙점,경기 과천시 중앙동 40-10,126.99108913380616,37.42830956313444
버거킹,버거킹 공덕역점,서울 마포구 공덕동 252-5,126.953739886302,37.5471086538147
버거킹,버거킹 광명철산점,경기 광명시 철산동 259,126.86602948501191,37.47597234490714
버거킹,버거킹 군자역점,서울 광진구 중곡동 140-29,127.08212530889787,37.55642079236927
버거킹,버거킹 아차산역점,서울 광진구 구의동 53-1,127.09004216301578,37.551947874485656
버거킹,버거킹 장한평역점,서울 동대문구 장안동 433-2,127.066356163979,37.5635152454738
버거킹,버거킹 장안SK점,서울 동대문구 장안동 164-2,127.064960711091,37.5701761821224
버거킹,버거킹 왕십리센트라스점,서울 성동구 하왕십리동 1070,127.02939134619812,37.56466458869931
버거킹,버거킹 약수역점,서울 중구 신당동 370-64,127.01172601953111,37.55626316600117
버거킹,버거킹 신당역점,서울 중구 흥인동 86,127.01642944655791,37.56607536092679
버거킹,버거킹 거여역점,서울 송파구 거여동 36-4,127.14647706405817,37.493070342556145
버거킹,버거킹 장안SK점 주차장,서울 동대문구 장안동 164-2,127.06492327209,37.5700788952304
버거킹,버거킹 약수역점 주차장,서울 중구 신당동 370-116,127.011688662487,37.5562028028714
버거킹,버거킹 부천역곡점,경기 부천시 소사구 괴안동 113-6,126.81167667546117,37.48460375567393
버거킹,버거킹 부천옥길점,경기 부천시 소사구 옥길동 745-3,126.82282052239474,37.46734865665706
버거킹,버거킹 광명소하DT점,경기 광명시 소하동 1077-4,126.879203453084,37.4345958381737
버거킹,버거킹 광명소하DT점 주차장,경기 광명시 소하동 1077-4,126.879180681109,37.4347039367706
버거킹,버거킹 의정부발곡역점,경기 의정부시 신곡동 664-22,127.05356329276673,37.72672955509567
버거킹,버거킹 남양주별내오일뱅크점,경기 남양주시 별내동 969,127.129354180547,37.6557711314167
버거킹,버거킹 구리갈매점,경기 구리시 갈매동 608-2,127.116397871274,37.63119858414234
버거킹,버거킹 의정부용현DT점,경기 의정부시 용현동 193-1,127.08355519375966,37.73084937135453
버거킹,버거킹 의정부신세계점,경기 의정부시 의정부동 168-54,127.04635539299007,37.73710818653052
버거킹,버거킹 의정부서부역점,경기 의정부시 의정부동 441-12,127.04342367396158,37.73872744443839
버거킹,버거킹 충무로역점,서울 중구 충무로4가 125-11,126.99570699411655,37.56138043291951
버거킹,버거킹 종로점,서울 종로구 종로2가 56-23,126.9880794053405,37.569935767942724
버거킹,버거킹 종로구청점,서울 종로구 수송동 68-1,126.9805138925224,37.57251701390905
버거킹,버거킹 회현역점,서울 중구 회현동1가 194-15,126.9787111882994,37.55862154103367
버거킹,버거킹 서울역점,서울 중구 봉래동2가 122-11,126.97086622234194,37.55431760302566
버거킹,버거킹 서대문역점,서울 중구 순화동 215,126.96951369921733,37.56295061601007
버거킹,버거킹 홍제역점,서울 서대문구 홍제동 301-2,126.943061060131,37.5900310180368
버거킹,버거킹 녹번대성GS점,서울 은평구 녹번동 19-38,126.935204672913,37.6039995372796
버거킹,버거킹 불광점,서울 은평구 불광동 267-1,126.92849234319962,37.61247757528458
버거킹,버거킹 박석고개SK점,서울 은평구 갈현동 1-6,126.91936579405355,37.62723707635291
버거킹,버거킹 수송동점 개방화장실,서울 종로구 수송동 68-1,126.98050257401395,37.57251160607014
버거킹,버거킹 박석고개SK점 주차장,서울 은평구 갈현동 1-6,126.91939626344,37.6273452155414
버거킹,버거킹 위례광장점,경기 성남시 수정구 창곡동 508-2,127.14267896263371,37.471188602226874
버거킹,버거킹 스타필드고양점,경기 고양시 덕양구 동산동 370,126.89307352325285,37.646653124211845
버거킹,버거킹 고양삼송점,경기 고양시 덕양구 신원동 618-2,126.8911679233315,37.66430522139003
버거킹,버거킹 구리SK점,경기 구리시 수택동 370-3,127.13707287924653,37.60031304135345
버거킹,버거킹 구리인창점,경기 구리시 인창동 321-1,127.13993943629589,37.60416591363491
버거킹,버거킹 남양주다산지금점,경기 남양주시 다산동 6217-2,127.17368255262255,37.6012586365119
